$$SOE
2461295.500000000, A.D. 2026-Sep-12 00:00:00.0000, 3.265403334097978E+08, -3.960063833690093E+08, -1.586976803982905E+07,
2461302.500000000, A.D. 2026-Sep-19 00:00:00.0000, 3.337554607197874E+08, -3.894691354254286E+08, -1.635030425142023E+07,
2461309.500000000, A.D. 2026-Sep-26 00:00:00.0000, 3.408507189967259E+08, -3.827920173594582E+08, -1.682496712312198E+07,
2461316.500000000, A.D. 2026-Oct-03 00:00:00.0000, 3.478233113631213E+08, -3.759771518408420E+08, -1.729357387100077E+07,
2461323.500000000, A.D. 2026-Oct-10 00:00:00.0000, 3.546704752838902E+08, -3.690267210931501E+08, -1.775594323407474E+07,
2461330.500000000, A.D. 2026-Oct-17 00:00:00.0000, 3.613894838761440E+08, -3.619429664363075E+08, -1.821189555224828E+07,
2461337.500000000, A.D. 2026-Oct-24 00:00:00.0000, 3.679776472132432E+08, -3.547281878919815E+08, -1.866125285246009E+07,
2461344.500000000, A.D. 2026-Oct-31 00:00:00.0000, 3.744323137202793E+08, -3.473847439178339E+08, -1.910383895738481E+07,
2461351.500000000, A.D. 2026-Nov-07 00:00:00.0000, 3.807508719987339E+08, -3.399150511954117E+08, -1.953947964151442E+07,
2461358.500000000, A.D. 2026-Nov-14 00:00:00.0000, 3.869307532806273E+08, -3.323215835834960E+08, -1.996800278023642E+07,
2461365.500000000, A.D. 2026-Nov-21 00:00:00.0000, 3.929694326998955E+08, -3.246068695552127E+08, -2.038923826968840E+07,
2461372.500000000, A.D. 2026-Nov-28 00:00:00.0000, 3.988644283812197E+08, -3.167734911268933E+08, -2.080301787135920E+07,
2461379.500000000, A.D. 2026-Dec-05 00:00:00.0000, 4.046133019637766E+08, -3.088240849336944E+08, -2.120917536673461E+07,
2461386.500000000, A.D. 2026-Dec-12 00:00:00.0000, 4.102136607237893E+08, -3.007613423398483E+08, -2.160754678252091E+07,
2461393.500000000, A.D. 2026-Dec-19 00:00:00.0000, 4.156631594079306E+08, -2.925880085767985E+08, -2.199797051249003E+07,
2461400.500000000, A.D. 2026-Dec-26 00:00:00.0000, 4.209595016341484E+08, -2.843068817771358E+08, -2.238028739352977E+07,
2461407.500000000, A.D. 2027-Jan-02 00:00:00.0000, 4.261004411343295E+08, -2.759208120951305E+08, -2.275434077655587E+07,
2461414.500000000, A.D. 2027-Jan-09 00:00:00.0000, 4.310837829539455E+08, -2.674327008936691E+08, -2.311997660116729E+07,
2461421.500000000, A.D. 2027-Jan-16 00:00:00.0000, 4.359073846417116E+08, -2.588454999888947E+08, -2.347704347642061E+07,
2461428.500000000, A.D. 2027-Jan-23 00:00:00.0000, 4.405691574723456E+08, -2.501622109923393E+08, -2.382539277509287E+07,
2461435.500000000, A.D. 2027-Jan-30 00:00:00.0000, 4.450670678867256E+08, -2.413858847982121E+08, -2.416487876252767E+07,
2461442.500000000, A.D. 2027-Feb-06 00:00:00.0000, 4.493991395709383E+08, -2.325196208752397E+08, -2.449535877123238E+07,
2461449.500000000, A.D. 2027-Feb-13 00:00:00.0000, 4.535634557118124E+08, -2.235665651431635E+08, -2.481669327934925E+07,
2461456.500000000, A.D. 2027-Feb-20 00:00:00.0000, 4.575581590634651E+08, -2.145299072259120E+08, -2.512874574093363E+07,
2461463.500000000, A.D. 2027-Feb-27 00:00:00.0000, 4.613814512178802E+08, -2.054128802959519E+08, -2.543138255885494E+07,
2461470.500000000, A.D. 2027-Mar-06 00:00:00.0000, 4.650315940945967E+08, -1.962187615867483E+08, -2.572447332013929E+07,
2461477.500000000, A.D. 2027-Mar-13 00:00:00.0000, 4.685069120476943E+08, -1.869508715235012E+08, -2.600789097958707E+07,
2461484.500000000, A.D. 2027-Mar-20 00:00:00.0000, 4.718057934596207E+08, -1.776125723070619E+08, -2.628151195637733E+07,
2461491.500000000, A.D. 2027-Mar-27 00:00:00.0000, 4.749266920227369E+08, -1.682072665003628E+08, -2.654521620711266E+07,
2461498.500000000, A.D. 2027-Apr-03 00:00:00.0000, 4.778681279103329E+08, -1.587383956655043E+08, -2.679888729784701E+07,
2461505.500000000, A.D. 2027-Apr-10 00:00:00.0000, 4.806286888972892E+08, -1.492094390289462E+08, -2.704241247883157E+07,
2461512.500000000, A.D. 2027-Apr-17 00:00:00.0000, 4.832070314514096E+08, -1.396239121898859E+08, -2.727568276515690E+07,
2461519.500000000, A.D. 2027-Apr-24 00:00:00.0000, 4.856018818732575E+08, -1.299853659350794E+08, -2.749859303560620E+07,
2461526.500000000, A.D. 2027-May-01 00:00:00.0000, 4.878120377819151E+08, -1.202973851333792E+08, -2.771104217485709E+07,
2461533.500000000, A.D. 2027-May-08 00:00:00.0000, 4.898363702513483E+08, -1.105635869619799E+08, -2.791293322590403E+07,
2461540.500000000, A.D. 2027-May-15 00:00:00.0000, 4.916738250988507E+08, -1.007876175110360E+08, -2.810417333727887E+07,
2461547.500000000, A.D. 2027-May-22 00:00:00.0000, 4.933234217606182E+08, -9.097314935928506E+07, -2.828467357329888E+07,
2461554.500000000, A.D. 2027-May-29 00:00:00.0000, 4.947842531078078E+08, -8.112388158962324E+07, -2.845434901498887E+07,
2461561.500000000, A.D. 2027-Jun-05 00:00:00.0000, 4.960554870858140E+08, -7.124353911236987E+07, -2.861311897668031E+07,
2461568.500000000, A.D. 2027-Jun-12 00:00:00.0000, 4.971363681690678E+08, -6.133587086449523E+07, -2.876090711869020E+07,
2461575.500000000, A.D. 2027-Jun-19 00:00:00.0000, 4.980262183005682E+08, -5.140464782102163E+07, -2.889764150196131E+07,
2461582.500000000, A.D. 2027-Jun-26 00:00:00.0000, 4.987244375952301E+08, -4.145366108162622E+07, -2.902325463143829E+07,
2461589.500000000, A.D. 2027-Jul-03 00:00:00.0000, 4.992305049382303E+08, -3.148672002587385E+07, -2.913768349935003E+07,
2461596.500000000, A.D. 2027-Jul-10 00:00:00.0000, 4.995439785139401E+08, -2.150765052990564E+07, -2.924086963075309E+07,
2461603.500000000, A.D. 2027-Jul-17 00:00:00.0000, 4.996644963004979E+08, -1.152029328488926E+07, -2.933275913751744E+07,
2461610.500000000, A.D. 2027-Jul-24 00:00:00.0000, 4.995917766850797E+08, -1.528502281594671E+06, -2.941330279993078E+07,
2461617.500000000, A.D. 2027-Jul-31 00:00:00.0000, 4.993256196093354E+08, 8.463856772843560E+06, -2.948245619411105E+07,
2461624.500000000, A.D. 2027-Aug-07 00:00:00.0000, 4.988659080420719E+08, 1.845290925694612E+07, -2.954017975235697E+07,
2461631.500000000, A.D. 2027-Aug-14 00:00:00.0000, 4.982126074778478E+08, 2.843477540204004E+07, -2.958643856583820E+07,
2461638.500000000, A.D. 2027-Aug-21 00:00:00.0000, 4.973657640804895E+08, 3.840557165835599E+07, -2.962120226127889E+07,
2461645.500000000, A.D. 2027-Aug-28 00:00:00.0000, 4.963255049010884E+08, 4.836141086080132E+07, -2.964444516803039E+07,
2461652.500000000, A.D. 2027-Sep-04 00:00:00.0000, 4.950920389874602E+08, 5.829840369530845E+07, -2.965614646271199E+07,
2461659.500000000, A.D. 2027-Sep-11 00:00:00.0000, 4.936656579890141E+08, 6.821266080307643E+07, -2.965629021759577E+07,
2461666.500000000, A.D. 2027-Sep-18 00:00:00.0000, 4.920467363897002E+08, 7.810029487083331E+07, -2.964486541826209E+07,
2461673.500000000, A.D. 2027-Sep-25 00:00:00.0000, 4.902357315971785E+08, 8.795742262776330E+07, -2.962186597804375E+07,
2461680.500000000, A.D. 2027-Oct-02 00:00:00.0000, 4.882331839624078E+08, 9.778016677505328E+07, -2.958729075405449E+07,
2461687.500000000, A.D. 2027-Oct-09 00:00:00.0000, 4.860397167512959E+08, 1.075646578421293E+08, -2.954114356737179E+07,
2461694.500000000, A.D. 2027-Oct-16 00:00:00.0000, 4.836560361310070E+08, 1.173070359134180E+08, -2.948343323778869E+07,
2461701.500000000, A.D. 2027-Oct-23 00:00:00.0000, 4.810829314304568E+08, 1.270034522185028E+08, -2.941417365759236E+07,
2461708.500000000, A.D. 2027-Oct-30 00:00:00.0000, 4.783212760488715E+08, 1.366500711942623E+08, -2.933338388898444E+07,
2461715.500000000, A.D. 2027-Nov-06 00:00:00.0000, 4.753720278476602E+08, 1.462430741462058E+08, -2.924108808621734E+07,
2461722.500000000, A.D. 2027-Nov-13 00:00:00.0000, 4.722362270412087E+08, 1.557786624327989E+08, -2.913731523005562E+07,
2461729.500000000, A.D. 2027-Nov-20 00:00:00.0000, 4.689149944907759E+08, 1.652530579850498E+08, -2.902209911958944E+07,
2461736.500000000, A.D. 2027-Nov-27 00:00:00.0000, 4.654095320189329E+08, 1.746625041229944E+08, -2.889547852756025E+07,
2461743.500000000, A.D. 2027-Dec-04 00:00:00.0000, 4.617211227204722E+08, 1.840032675811803E+08, -2.875749725882303E+07,
2461750.500000000, A.D. 2027-Dec-11 00:00:00.0000, 4.578511307196376E+08, 1.932716407775945E+08, -2.860820414015550E+07,
2461757.500000000, A.D. 2027-Dec-18 00:00:00.0000, 4.538010006493263E+08, 2.024639439851659E+08, -2.844765299428279E+07,
2461764.500000000, A.D. 2027-Dec-25 00:00:00.0000, 4.495722570049243E+08, 2.115765274017693E+08, -2.827590261216638E+07,
2461771.500000000, A.D. 2028-Jan-01 00:00:00.0000, 4.451665034148358E+08, 2.206057731312419E+08, -2.809301672607760E+07,
$$EOE